GLOBALSTAR M063         
1 26081U 00008A   24329.41619691 -.00000032  00000+0  74056-3 0  9992
2 26081  51.9962 290.8629 0004587 285.6161 252.4595 11.86162809133348
GLOBALSTAR M062         
1 26082U 00008B   24329.23674274 -.00000002  00000+0  69090-3 0  9990
2 26082  51.9863 338.4743 0007251  34.5443  66.3364 12.43450609133629
GLOBALSTAR M060         
1 26083U 00008C   24329.28039358 -.00000041  00000+0  49745-3 0  9992
2 26083  52.0022 269.3643 0004143  64.0087 102.6144 12.17646702127589
GLOBALSTAR M064         
1 26084U 00008D   24329.10830524 -.00000078  00000+0  71243-4 0  9997
2 26084  52.0057  32.9179 0001417  41.1097 318.9842 11.88525771142824
GLOBALSTAR M065         
1 31571U 07020A   24328.87664878 -.00000073  00000+0  17282-3 0  9992
2 31571  51.9868 131.1575 0009713 203.3200 304.3313 12.61979091807488
GLOBALSTAR M069         
1 31573U 07020C   24328.82730500 -.00000075  00000+0  16564-3 0  9999
2 31573  51.9946  89.6560 0001588 102.8527  64.2744 12.53305023808564
GLOBALSTAR M072         
1 31574U 07020D   24328.99145708 -.00000078  00000+0  14375-3 0  9999
2 31574  52.0061 185.3272 0001231  71.8275  69.6444 12.34773214807025
GLOBALSTAR M071         
1 31576U 07020F   24328.85955073 -.00000067  00000+0  20774-3 0  9998
2 31576  52.0064  92.1302 0001535  96.3970  45.4908 12.62263718469801
